{
  "type": "FeatureCollection",
  "features": [
    {
      "type": "Feature",
      "properties": {
        "norad_id": 33673,
        "name": "FENGYUN 1C DEB",
        "group": "fengyun-1c-debris",
        "lat": 20.79238224567892,
        "lon": -128.52323742944594,
        "alt_km": 838.690489685926,
        "timestamp": "2025-12-26T21:25:53.297277+00:00",
        "meta_object_name": "FENGYUN 1C DEB",
        "meta_object_id": "1999-025DFJ",
        "meta_epoch": "2025-12-25T08:50:23.280000",
        "meta_mean_motion": 13.95552068,
        "meta_eccentricity": 0.0108127,
        "meta_inclination": 99.3427,
        "meta_ra_of_asc_node": 46.3479,
        "meta_arg_of_pericenter": 189.9927,
        "meta_mean_anomaly": 233.6688,
        "meta_ephemeris_type": 0,
        "meta_classification_type": "U",
        "meta_norad_cat_id": 33673,
        "meta_element_set_no": 999,
        "meta_rev_at_epoch": 90078,
        "meta_bstar": 0.00057668,
        "meta_mean_motion_dot": 7.77e-06,
        "meta_mean_motion_ddot": 0,
        "tle_line1": "1 33673U 99025DFJ 25359.36832500  .00000777  00000+0  57668-3 0  9993",
        "tle_line2": "2 33673  99.3427  46.3479 0108127 189.9927 233.6688 13.95552068900789"
      },
      "geometry": {
        "type": "Point",
        "coordinates": [
          -128.52323742944594,
          20.79238224567892
        ]
      }
    },
    {
      "type": "Feature",
      "properties": {
        "norad_id": 33674,
        "name": "FENGYUN 1C DEB",
        "group": "fengyun-1c-debris",
        "lat": 11.975534631499984,
        "lon": -128.6569334975197,
        "alt_km": 846.4484320326792,
        "timestamp": "2025-12-26T21:25:53.297287+00:00",
        "meta_object_name": "FENGYUN 1C DEB",
        "meta_object_id": "1999-025DFK",
        "meta_epoch": "2025-12-26T13:37:56.094240",
        "meta_mean_motion": 13.76944852,
        "meta_eccentricity": 0.0212123,
        "meta_inclination": 98.6055,
        "meta_ra_of_asc_node": 49.2081,
        "meta_arg_of_pericenter": 203.2406,
        "meta_mean_anomaly": 155.9046,
        "meta_ephemeris_type": 0,
        "meta_classification_type": "U",
        "meta_norad_cat_id": 33674,
        "meta_element_set_no": 999,
        "meta_rev_at_epoch": 88555,
        "meta_bstar": 0.0017786875,
        "meta_mean_motion_dot": 2.032e-05,
        "meta_mean_motion_ddot": 0,
        "tle_line1": "1 33674U 99025DFK 25360.56801035  .00002032  00000+0  17787-2 0  9990",
        "tle_line2": "2 33674  98.6055  49.2081 0212123 203.2406 155.9046 13.76944852885550"
      },
      "geometry": {
        "type": "Point",
        "coordinates": [
          -128.6569334975197,
          11.975534631499984
        ]
      }
    },
    {
      "type": "Feature",
      "properties": {
        "norad_id": 33676,
        "name": "FENGYUN 1C DEB",
        "group": "fengyun-1c-debris",
        "lat": -60.482815548866235,
        "lon": -170.27778464855933,
        "alt_km": 901.573894874622,
        "timestamp": "2025-12-26T21:25:53.297299+00:00",
        "meta_object_name": "FENGYUN 1C DEB",
        "meta_object_id": "1999-025DFM",
        "meta_epoch": "2025-12-24T21:28:18.255072",
        "meta_mean_motion": 14.35574103,
        "meta_eccentricity": 0.0204652,
        "meta_inclination": 99.0951,
        "meta_ra_of_asc_node": 24.0504,
        "meta_arg_of_pericenter": 34.1982,
        "meta_mean_anomaly": 327.2189,
        "meta_ephemeris_type": 0,
        "meta_classification_type": "U",
        "meta_norad_cat_id": 33676,
        "meta_element_set_no": 999,
        "meta_rev_at_epoch": 65485,
        "meta_bstar": 0.00014211,
        "meta_mean_motion_dot": 4.63e-06,
        "meta_mean_motion_ddot": 0,
        "tle_line1": "1 33676U 99025DFM 25358.89465573  .00000463  00000+0  14211-3 0  9994",
        "tle_line2": "2 33676  99.0951  24.0504 0204652  34.1982 327.2189 14.35574103654854"
      },
      "geometry": {
        "type": "Point",
        "coordinates": [
          -170.27778464855933,
          -60.482815548866235
        ]
      }
    },
    {
      "type": "Feature",
      "properties": {
        "norad_id": 33678,
        "name": "FENGYUN 1C DEB",
        "group": "fengyun-1c-debris",
        "lat": 65.74269687197166,
        "lon": 46.686305478523295,
        "alt_km": 813.5557795533095,
        "timestamp": "2025-12-26T21:25:53.297309+00:00",
        "meta_object_name": "FENGYUN 1C DEB",
        "meta_object_id": "1999-025DFP",
        "meta_epoch": "2025-12-25T15:14:45.890304",
        "meta_mean_motion": 14.47430737,
        "meta_eccentricity": 0.0205317,
        "meta_inclination": 99.0408,
        "meta_ra_of_asc_node": 66.0335,
        "meta_arg_of_pericenter": 198.2051,
        "meta_mean_anomaly": 161.1713,
        "meta_ephemeris_type": 0,
        "meta_classification_type": "U",
        "meta_norad_cat_id": 33678,
        "meta_element_set_no": 999,
        "meta_rev_at_epoch": 95282,
        "meta_bstar": 0.00082058,
        "meta_mean_motion_dot": 3.865e-05,
        "meta_mean_motion_ddot": 0,
        "tle_line1": "1 33678U 99025DFP 25359.63525336  .00003865  00000+0  82058-3 0  9996",
        "tle_line2": "2 33678  99.0408  66.0335 0205317 198.2051 161.1713 14.47430737952822"
      },
      "geometry": {
        "type": "Point",
        "coordinates": [
          46.686305478523295,
          65.74269687197166
        ]
      }
    },
    {
      "type": "Feature",
      "properties": {
        "norad_id": 33679,
        "name": "FENGYUN 1C DEB",
        "group": "fengyun-1c-debris",
        "lat": -75.4725149974711,
        "lon": -149.03470673130246,
        "alt_km": 462.8456442293518,
        "timestamp": "2025-12-26T21:25:53.297319+00:00",
        "meta_object_name": "FENGYUN 1C DEB",
        "meta_object_id": "1999-025DFQ",
        "meta_epoch": "2025-12-23T10:47:58.598592",
        "meta_mean_motion": 15.03072318,
        "meta_eccentricity": 0.01469003,
        "meta_inclination": 99.349,
        "meta_ra_of_asc_node": 66.2906,
        "meta_arg_of_pericenter": 264.9946,
        "meta_mean_anomaly": 93.4491,
        "meta_ephemeris_type": 0,
        "meta_classification_type": "U",
        "meta_norad_cat_id": 33679,
        "meta_element_set_no": 999,
        "meta_rev_at_epoch": 94284,
        "meta_bstar": 0.0014822453,
        "meta_mean_motion_dot": 0.00025299,
        "meta_mean_motion_ddot": 0,
        "tle_line1": "1 33679U 99025DFQ 25357.44998378  .00025299  00000+0  14822-2 0  9992",
        "tle_line2": "2 33679  99.3490  66.2906 0146900 264.9946  93.4491 15.03072318942840"
      },
      "geometry": {
        "type": "Point",
        "coordinates": [
          -149.03470673130246,
          -75.4725149974711
        ]
      }
    },
    {
      "type": "Feature",
      "properties": {
        "norad_id": 33682,
        "name": "FENGYUN 1C DEB",
        "group": "fengyun-1c-debris",
        "lat": 30.64039262321923,
        "lon": -125.80765019721045,
        "alt_km": 806.5650122931065,
        "timestamp": "2025-12-26T21:25:53.297329+00:00",
        "meta_object_name": "FENGYUN 1C DEB",
        "meta_object_id": "1999-025DFT",
        "meta_epoch": "2025-12-22T02:17:23.614944",
        "meta_mean_motion": 14.26736695,
        "meta_eccentricity": 0.00279598,
        "meta_inclination": 99.4226,
        "meta_ra_of_asc_node": 43.3863,
        "meta_arg_of_pericenter": 55.7608,
        "meta_mean_anomaly": 304.6212,
        "meta_ephemeris_type": 0,
        "meta_classification_type": "U",
        "meta_norad_cat_id": 33682,
        "meta_element_set_no": 999,
        "meta_rev_at_epoch": 91831,
        "meta_bstar": 0.0013417158,
        "meta_mean_motion_dot": 3.212e-05,
        "meta_mean_motion_ddot": 0,
        "tle_line1": "1 33682U 99025DFT 25356.09541221  .00003212  00000+0  13417-2 0  9997",
        "tle_line2": "2 33682  99.4226  43.3863 0027959  55.7608 304.6212 14.26736695918315"
      },
      "geometry": {
        "type": "Point",
        "coordinates": [
          -125.80765019721045,
          30.64039262321923
        ]
      }
    },
    {
      "type": "Feature",
      "properties": {
        "norad_id": 33684,
        "name": "FENGYUN 1C DEB",
        "group": "fengyun-1c-debris",
        "lat": -17.467270130046135,
        "lon": 61.02131665960306,
        "alt_km": 512.6233051843119,
        "timestamp": "2025-12-26T21:25:53.297342+00:00",
        "meta_object_name": "FENGYUN 1C DEB",
        "meta_object_id": "1999-025DFV",
        "meta_epoch": "2025-12-24T22:14:35.434464",
        "meta_mean_motion": 14.73343825,
        "meta_eccentricity": 0.0286164,
        "meta_inclination": 99.063,
        "meta_ra_of_asc_node": 55.9453,
        "meta_arg_of_pericenter": 302.5363,
        "meta_mean_anomaly": 54.849,
        "meta_ephemeris_type": 0,
        "meta_classification_type": "U",
        "meta_norad_cat_id": 33684,
        "meta_element_set_no": 999,
        "meta_rev_at_epoch": 93168,
        "meta_bstar": 0.00083069927,
        "meta_mean_motion_dot": 0.00010341,
        "meta_mean_motion_ddot": 0,
        "tle_line1": "1 33684U 99025DFV 25358.92679901  .00010341  00000+0  83070-3 0  9994",
        "tle_line2": "2 33684  99.0630  55.9453 0286164 302.5363  54.8490 14.73343825931680"
      },
      "geometry": {
        "type": "Point",
        "coordinates": [
          61.02131665960306,
          -17.467270130046135
        ]
      }
    }
  ]
}